GLOBALSTAR M075         
1 37192U 10054E   24350.55884038 -.00000075  00000+0  16196-3 0  9995
2 37192  51.9967  20.6446 0000335  96.4340  68.5827 12.62270144653188
GLOBALSTAR M073         
1 37193U 10054F   24350.12945907 -.00000098  00000+0  34423-4 0  9991
2 37193  52.0069 295.6302 0000506  36.2756 336.8218 12.62273833654647
GLOBALSTAR M083         
1 37739U 11033A   24350.78899656 -.00000067  00000+0  20655-3 0  9993
2 37739  51.9848 242.6058 0000789  79.7139 351.6387 12.62269372624053
GLOBALSTAR M088         
1 37740U 11033B   24350.51846885 -.00000112  00000+0 -44058-4 0  9998
2 37740  51.9711 149.0729 0001051 107.4206 294.5827 12.62266568619496
GLOBALSTAR M091         
1 37741U 11033C   24350.79632052 -.00000111  00000+0 -40228-4 0  9992
2 37741  51.9991 111.4547 0001026 129.7960  34.3645 12.62271799620283
GLOBALSTAR M085         
1 37742U 11033D   24349.99259421 -.00000096  00000+0  41621-4 0  9997
2 37742  51.9882  65.1018 0000745 141.8507  29.4166 12.62270152620926
GLOBALSTAR M081         
1 37743U 11033E   24349.77121897 -.00000098  00000+0  30435-4 0  9992
2 37743  51.9970  68.4485 0000502 153.4931 331.4910 12.62274039620550
GLOBALSTAR M089         
1 37744U 11033F   24350.85067062 -.00000070  00000+0  18593-3 0  9997
2 37744  51.9951  19.4269 0000252  45.4276 126.2249 12.62273472621781
